[{"OBJECT_NAME":"THEA","OBJECT_ID":"2018-099AQ","EPOCH":"2026-03-09T22:33:02.658240","MEAN_MOTION":15.31454284,"ECCENTRICITY":0.00065849,"INCLINATION":97.4542,"RA_OF_ASC_NODE":137.8815,"ARG_OF_PERICENTER":275.4664,"MEAN_ANOMALY":84.5826,"EPHEMERIS_TYPE":0,"CLASSIFICATION_TYPE":"U","NORAD_CAT_ID":43796,"ELEMENT_SET_NO":999,"REV_AT_EPOCH":39748,"BSTAR":0.00074635274,"MEAN_MOTION_DOT":0.00022649,"MEAN_MOTION_DDOT":0},{"OBJECT_NAME":"STARLINK-1482","OBJECT_ID":"2020-038AV","EPOCH":"2026-03-09T14:46:35.385312","MEAN_MOTION":15.30192757,"ECCENTRICITY":0.0001327,"INCLINATION":53.1615,"RA_OF_ASC_NODE":191.3633,"ARG_OF_PERICENTER":89.6348,"MEAN_ANOMALY":270.4805,"EPHEMERIS_TYPE":0,"CLASSIFICATION_TYPE":"U","NORAD_CAT_ID":45773,"ELEMENT_SET_NO":999,"REV_AT_EPOCH":31683,"BSTAR":1.5205e-5,"MEAN_MOTION_DOT":9.1e-7,"MEAN_MOTION_DDOT":0}]
